{
  "type": "FeatureCollection",
  "features": [
    {
      "type": "Feature",
      "properties": {
        "norad_id": 66411,
        "name": "ZK-1A R/B",
        "group": "last-30-days",
        "lat": -57.55840727734151,
        "lon": -149.99883558442662,
        "alt_km": 447.4675139488245,
        "timestamp": "2025-12-02T07:10:07.865698+00:00",
        "meta_object_name": "ZK-1A R/B",
        "meta_object_id": "2025-256C",
        "meta_epoch": "2025-11-20T17:22:35.449824",
        "meta_mean_motion": 15.012361,
        "meta_eccentricity": 0.02323532,
        "meta_inclination": 98.3243,
        "meta_ra_of_asc_node": 30.9055,
        "meta_arg_of_pericenter": 318.4537,
        "meta_mean_anomaly": 39.9225,
        "meta_ephemeris_type": 0,
        "meta_classification_type": "U",
        "meta_norad_cat_id": 66411,
        "meta_element_set_no": 999,
        "meta_rev_at_epoch": 174,
        "meta_bstar": 0.00048987823,
        "meta_mean_motion_dot": 0.00011214,
        "meta_mean_motion_ddot": 0,
        "tle_line1": "1 66411U 25256C   25324.72402141  .00011214  00000+0  48988-3 0  9993",
        "tle_line2": "2 66411  98.3243  30.9055 0232353 318.4537  39.9225 15.01236100  1741"
      },
      "geometry": {
        "type": "Point",
        "coordinates": [
          -149.99883558442662,
          -57.55840727734151
        ]
      }
    },
    {
      "type": "Feature",
      "properties": {
        "norad_id": 66412,
        "name": "HULIANWANG DIGUI 13A",
        "group": "last-30-days",
        "lat": -48.72928299458257,
        "lon": -161.02695261452376,
        "alt_km": 813.2716796408959,
        "timestamp": "2025-12-02T07:10:07.865711+00:00",
        "meta_object_name": "HULIANWANG DIGUI 13A",
        "meta_object_id": "2025-258A",
        "meta_epoch": "2025-12-01T14:47:33.940320",
        "meta_mean_motion": 14.23489671,
        "meta_eccentricity": 0.00140279,
        "meta_inclination": 50.0036,
        "meta_ra_of_asc_node": 308.7867,
        "meta_arg_of_pericenter": 318.6453,
        "meta_mean_anomaly": 41.3397,
        "meta_ephemeris_type": 0,
        "meta_classification_type": "U",
        "meta_norad_cat_id": 66412,
        "meta_element_set_no": 999,
        "meta_rev_at_epoch": 307,
        "meta_bstar": 8.8004036e-05,
        "meta_mean_motion_dot": 4.2e-07,
        "meta_mean_motion_ddot": 0,
        "tle_line1": "1 66412U 25258A   25335.61636505  .00000042  00000+0  88004-4 0  9990",
        "tle_line2": "2 66412  50.0036 308.7867 0014027 318.6453  41.3397 14.23489671  3070"
      },
      "geometry": {
        "type": "Point",
        "coordinates": [
          -161.02695261452376,
          -48.72928299458257
        ]
      }
    },
    {
      "type": "Feature",
      "properties": {
        "norad_id": 66413,
        "name": "HULIANWANG DIGUI 13B",
        "group": "last-30-days",
        "lat": -29.298899328588373,
        "lon": 154.08630329198473,
        "alt_km": 819.0421257238404,
        "timestamp": "2025-12-02T07:10:07.865723+00:00",
        "meta_object_name": "HULIANWANG DIGUI 13B",
        "meta_object_id": "2025-258B",
        "meta_epoch": "2025-12-01T14:58:34.968576",
        "meta_mean_motion": 14.23480813,
        "meta_eccentricity": 0.00133902,
        "meta_inclination": 50.0007,
        "meta_ra_of_asc_node": 308.8171,
        "meta_arg_of_pericenter": 319.2338,
        "meta_mean_anomaly": 40.7573,
        "meta_ephemeris_type": 0,
        "meta_classification_type": "U",
        "meta_norad_cat_id": 66413,
        "meta_element_set_no": 999,
        "meta_rev_at_epoch": 307,
        "meta_bstar": 5.7816598e-05,
        "meta_mean_motion_dot": -2.7e-07,
        "meta_mean_motion_ddot": 0,
        "tle_line1": "1 66413U 25258B   25335.62401584 -.00000027  00000+0  57817-4 0  9991",
        "tle_line2": "2 66413  50.0007 308.8171 0013390 319.2338  40.7573 14.23480813  3077"
      },
      "geometry": {
        "type": "Point",
        "coordinates": [
          154.08630329198473,
          -29.298899328588373
        ]
      }
    },
    {
      "type": "Feature",
      "properties": {
        "norad_id": 66414,
        "name": "HULIANWANG DIGUI 13C",
        "group": "last-30-days",
        "lat": -39.28564566633086,
        "lon": 169.33787162030498,
        "alt_km": 816.5420725681988,
        "timestamp": "2025-12-02T07:10:07.865733+00:00",
        "meta_object_name": "HULIANWANG DIGUI 13C",
        "meta_object_id": "2025-258C",
        "meta_epoch": "2025-12-01T14:54:05.131872",
        "meta_mean_motion": 14.23506333,
        "meta_eccentricity": 0.00135778,
        "meta_inclination": 50.0044,
        "meta_ra_of_asc_node": 308.8152,
        "meta_arg_of_pericenter": 317.4501,
        "meta_mean_anomaly": 42.5359,
        "meta_ephemeris_type": 0,
        "meta_classification_type": "U",
        "meta_norad_cat_id": 66414,
        "meta_element_set_no": 999,
        "meta_rev_at_epoch": 307,
        "meta_bstar": 8.1567509e-05,
        "meta_mean_motion_dot": 2.8e-07,
        "meta_mean_motion_ddot": 0,
        "tle_line1": "1 66414U 25258C   25335.62089273  .00000028  00000+0  81568-4 0  9999",
        "tle_line2": "2 66414  50.0044 308.8152 0013577 317.4501  42.5359 14.23506333  3075"
      },
      "geometry": {
        "type": "Point",
        "coordinates": [
          169.33787162030498,
          -39.28564566633086
        ]
      }
    },
    {
      "type": "Feature",
      "properties": {
        "norad_id": 66415,
        "name": "HULIANWANG DIGUI 13D",
        "group": "last-30-days",
        "lat": -49.83060529124133,
        "lon": -150.11520261108154,
        "alt_km": 813.2919407751015,
        "timestamp": "2025-12-02T07:10:07.865743+00:00",
        "meta_object_name": "HULIANWANG DIGUI 13D",
        "meta_object_id": "2025-258D",
        "meta_epoch": "2025-12-01T14:45:32.986368",
        "meta_mean_motion": 14.23494564,
        "meta_eccentricity": 0.00133432,
        "meta_inclination": 50.0046,
        "meta_ra_of_asc_node": 308.7801,
        "meta_arg_of_pericenter": 324.2913,
        "meta_mean_anomaly": 35.7106,
        "meta_ephemeris_type": 0,
        "meta_classification_type": "U",
        "meta_norad_cat_id": 66415,
        "meta_element_set_no": 999,
        "meta_rev_at_epoch": 307,
        "meta_bstar": 0.00011732974,
        "meta_mean_motion_dot": 1.09e-06,
        "meta_mean_motion_ddot": 0,
        "tle_line1": "1 66415U 25258D   25335.61496512  .00000109  00000+0  11733-3 0  9993",
        "tle_line2": "2 66415  50.0046 308.7801 0013343 324.2913  35.7106 14.23494564  3078"
      },
      "geometry": {
        "type": "Point",
        "coordinates": [
          -150.11520261108154,
          -49.83060529124133
        ]
      }
    },
    {
      "type": "Feature",
      "properties": {
        "norad_id": 66416,
        "name": "HULIANWANG DIGUI 13E",
        "group": "last-30-days",
        "lat": -43.750223225992336,
        "lon": 179.4278207730057,
        "alt_km": 816.8059528225212,
        "timestamp": "2025-12-02T07:10:07.865756+00:00",
        "meta_object_name": "HULIANWANG DIGUI 13E",
        "meta_object_id": "2025-258E",
        "meta_epoch": "2025-12-01T14:51:36.014112",
        "meta_mean_motion": 14.23467601,
        "meta_eccentricity": 0.00127009,
        "meta_inclination": 50.0046,
        "meta_ra_of_asc_node": 308.8074,
        "meta_arg_of_pericenter": 325.392,
        "meta_mean_anomaly": 34.6165,
        "meta_ephemeris_type": 0,
        "meta_classification_type": "U",
        "meta_norad_cat_id": 66416,
        "meta_element_set_no": 999,
        "meta_rev_at_epoch": 307,
        "meta_bstar": 9.1313396e-05,
        "meta_mean_motion_dot": 5e-07,
        "meta_mean_motion_ddot": 0,
        "tle_line1": "1 66416U 25258E   25335.61916683  .00000050  00000+0  91313-4 0  9998",
        "tle_line2": "2 66416  50.0046 308.8074 0012700 325.3920  34.6165 14.23467601  3073"
      },
      "geometry": {
        "type": "Point",
        "coordinates": [
          179.4278207730057,
          -43.750223225992336
        ]
      }
    },
    {
      "type": "Feature",
      "properties": {
        "norad_id": 66417,
        "name": "HULIANWANG DIGUI 13F",
        "group": "last-30-days",
        "lat": -46.558968267786994,
        "lon": -171.63613362336795,
        "alt_km": 815.597798994324,
        "timestamp": "2025-12-02T07:10:07.865766+00:00",
        "meta_object_name": "HULIANWANG DIGUI 13F",
        "meta_object_id": "2025-258F",
        "meta_epoch": "2025-12-01T14:49:39.737856",
        "meta_mean_motion": 14.23475385,
        "meta_eccentricity": 0.00123727,
        "meta_inclination": 49.9998,
        "meta_ra_of_asc_node": 308.7777,
        "meta_arg_of_pericenter": 323.6504,
        "meta_mean_anomaly": 36.3568,
        "meta_ephemeris_type": 0,
        "meta_classification_type": "U",
        "meta_norad_cat_id": 66417,
        "meta_element_set_no": 999,
        "meta_rev_at_epoch": 307,
        "meta_bstar": 0.00010171301,
        "meta_mean_motion_dot": 7.4e-07,
        "meta_mean_motion_ddot": 0,
        "tle_line1": "1 66417U 25258F   25335.61782104  .00000074  00000+0  10171-3 0  9996",
        "tle_line2": "2 66417  49.9998 308.7777 0012372 323.6504  36.3568 14.23475385  3074"
      },
      "geometry": {
        "type": "Point",
        "coordinates": [
          -171.63613362336795,
          -46.558968267786994
        ]
      }
    }
  ]
}